STARLINK-34294          
1 64599U 25137F   26173.36683324  .00020043  00000+0  60256-3 0  9995
2 64599  53.1594 208.8683 0001140  71.3630 288.7497 15.34409747 56766
STARLINK-34504          
1 64600U 25137G   26173.48124291  .00018165  00000+0  62411-3 0  9991
2 64600  53.1579 208.8691 0001119  74.6844 285.4281 15.30190999 56778
STARLINK-34508          
1 64601U 25137H   26173.50117687  .00011246  00000+0  39124-3 0  9994
2 64601  53.1585 208.2797 0000858  75.0396 285.0700 15.30200035 56789
STARLINK-34435          
1 64602U 25137J   26173.83335648 -.00000162  00000+0  63387-5 0  9996
2 64602  53.1599 206.8213 0001667 100.9678 247.6767 15.34400511  5856
STARLINK-34475          
1 64603U 25137K   26173.48945382  .00013667  00000+0  42598-3 0  9992
2 64603  53.1596 208.2089 0001060  74.0471 286.0648 15.33559797 56783
STARLINK-34488          
1 64604U 25137L   26173.36738350  .00010424  00000+0  36363-3 0  9996
2 64604  53.1599 208.8683 0001405  87.2146 272.9016 15.30196211 56767
STARLINK-34516          
1 64605U 25137M   26173.49377962  .00012202  00000+0  40407-3 0  9999
2 64605  53.1585 207.5299 0001082  58.7488 301.3619 15.31721472 56899
STARLINK-34073          
1 64606U 25137N   26173.49379209  .00015730  00000+0  54214-3 0  9996
2 64606  53.1593 208.2317 0001122  81.0501 279.0627 15.30196207 56664
STARLINK-34532          
1 64607U 25137P   26173.42572851 -.00012212  00000+0 -35133-3 0  9991
2 64607  53.1579 218.4569 0001179  33.4779 326.6297 15.34360138 56630
STARLINK-34519          
1 64608U 25137Q   26173.83335648  .01115202  00000+0  31241-1 0  9994
2 64608  53.1595 206.7961 0001260  43.6234 318.2592 15.33235098  5752
STARLINK-34513          
1 64609U 25137R   26173.50434286  .00007251  00000+0  25669-3 0  9999
2 64609  53.1584 208.3000 0001117  79.8513 280.2614 15.30198518 56879
STARLINK-34569          
1 64610U 25137S   26173.36893410  .00013493  00000+0  40977-3 0  9997
2 64610  53.1589 208.8785 0001076  89.9431 270.1695 15.34399168 56769
STARLINK-34494          
1 64611U 25137T   26173.48868510  .00016254  00000+0  49107-3 0  9996
2 64611  53.1600 208.2040 0000653  50.6438 309.4623 15.34404621 56784
STARLINK-34521          
1 64612U 25137U   26173.30734416  .00012576  00000+0  43601-3 0  9991
2 64612  53.1582 209.2010 0000972  77.9754 282.1355 15.30199723 56755
STARLINK-34500          
1 64613U 25137V   26173.36052011  .00015050  00000+0  45565-3 0  9993
2 64613  53.1598 208.8225 0001693  93.7165 266.4031 15.34400718 56860
STARLINK-34440          
1 64614U 25137W   26173.71055095  .00013420  00000+0  41841-3 0  9990
2 64614  53.1598 207.4504 0001441 135.2531 224.8587 15.33566282 56813
STARLINK-34469          
1 64615U 25137X   26173.35894021  .00009904  00000+0  34608-3 0  9996
2 64615  53.1603 208.8116 0001423  93.4177 266.6987 15.30199205 56762
STARLINK-34413          
1 64616U 25137Y   26173.36262348  .00015247  00000+0  46151-3 0  9992
2 64616  53.1598 208.8368 0001155  77.4641 282.6491 15.34397249 56866
STARLINK-34417          
1 64617U 25137Z   26173.43558641  .00013707  00000+0  41610-3 0  9999
2 64617  53.1576 194.8685 0000952  84.6421 275.4690 15.34398189 57067
STARLINK-34415          
1 64618U 25137AA  26173.83335648  .00000945  00000+0  39123-4 0  9991
2 64618  53.1608 206.7259 0001324  59.4358 335.8398 15.34392400  5808
STARLINK-34416          
1 64619U 25137AB  26173.37582268  .00011945  00000+0  41478-3 0  9990
2 64619  53.1575 208.9157 0000913  76.5101 283.6001 15.30199401 56766
STARLINK-34414          
1 64620U 25137AC  26173.38155793  .00014395  00000+0  43639-3 0  9995
2 64620  53.1585 208.9497 0001062  75.1935 284.9185 15.34397296 56765
HAWK-12C                
1 64621U 25138A   26173.77642568  .00003006  00000+0  14974-3 0  9998
2 64621  97.4344 176.1259 0015657 120.4145 239.8639 15.18235677 54716
HAWK-12B                
1 64622U 25138B   26173.77660149  .00003051  00000+0  15201-3 0  9998
2 64622  97.4467 176.7835 0014708 115.9606 244.3145 15.18235496 54718
HAWK-12A                
1 64623U 25138C   26173.77622487  .00003051  00000+0  15191-3 0  9990
2 64623  97.4404 176.4532 0015633 115.6944 244.5907 15.18236586 54710
KESTREL-0A              
1 64624U 25138D   26173.68754867  .00007302  00000+0  31000-3 0  9999
2 64624  97.4409 177.7904 0015160 104.7814 255.5104 15.23274595 54789
STARLINK-34464          
1 64664U 25139A   26173.50243199  .00011828  00000+0  36059-3 0  9993
2 64664  53.1606 358.6275 0001611  85.4426 274.6761 15.34404471 56358
STARLINK-34555          
1 64665U 25139B   26173.50034288  .00018008  00000+0  54265-3 0  9997
2 64665  53.1600 358.6122 0001214  90.2839 269.8303 15.34410094 56250
STARLINK-34390          
1 64666U 25139C   26172.81529675  .00019987  00000+0  60077-3 0  9995
2 64666  53.1594   1.4471 0001100  88.8971 271.2157 15.34417191 56313
STARLINK-34382          
1 64667U 25139D   26172.87049345  .00020002  00000+0  60157-3 0  9992
2 64667  53.1607   3.2062 0000481  89.9006 270.2052 15.34398799 56233
