OBJECT_NAME,OBJECT_ID,EPOCH,MEAN_MOTION,ECCENTRICITY,INCLINATION,RA_OF_ASC_NODE,ARG_OF_PERICENTER,MEAN_ANOMALY,EPHEMERIS_TYPE,CLASSIFICATION_TYPE,NORAD_CAT_ID,ELEMENT_SET_NO,REV_AT_EPOCH,BSTAR,MEAN_MOTION_DOT,MEAN_MOTION_DDOT
STARLINK-34294,2025-137F,2026-06-22T08:48:14.391936,15.34409747,.00011408,53.1594,208.8683,71.3630,288.7497,0,U,64599,999,5676,.60255917E-3,.20043E-3,0
STARLINK-34504,2025-137G,2026-06-22T11:32:59.387424,15.30190999,.0001119,53.1579,208.8691,74.6844,285.4281,0,U,64600,999,5677,.62411154E-3,.18165E-3,0
STARLINK-34508,2025-137H,2026-06-22T12:01:41.681568,15.30200035,.00008583,53.1585,208.2797,75.0396,285.0700,0,U,64601,999,5678,.39124216E-3,.11246E-3,0
STARLINK-34435,2025-137J,2026-06-22T20:00:01.999872,15.34400511,.00016679,53.1599,206.8213,100.9678,247.6767,0,U,64602,999,585,.6338671E-5,-.162E-5,0
STARLINK-34475,2025-137K,2026-06-22T11:44:48.810048,15.33559797,.00010609,53.1596,208.2089,74.0471,286.0648,0,U,64603,999,5678,.42597626E-3,.13667E-3,0
STARLINK-34488,2025-137L,2026-06-22T08:49:01.934400,15.30196211,.00014053,53.1599,208.8683,87.2146,272.9016,0,U,64604,999,5676,.36362956E-3,.10424E-3,0
STARLINK-34516,2025-137M,2026-06-22T11:51:02.559168,15.31721472,.00010824,53.1585,207.5299,58.7488,301.3619,0,U,64605,999,5689,.40406706E-3,.12202E-3,0
STARLINK-34073,2025-137N,2026-06-22T11:51:03.636576,15.30196207,.00011221,53.1593,208.2317,81.0501,279.0627,0,U,64606,999,5666,.54214467E-3,.1573E-3,0
STARLINK-34532,2025-137P,2026-06-22T10:13:02.943264,15.34360138,.00011798,53.1579,218.4569,33.4779,326.6297,0,U,64607,999,5663,-.35132598E-3,-.12212E-3,0
STARLINK-34519,2025-137Q,2026-06-22T20:00:01.999872,15.33235098,.00012602,53.1595,206.7961,43.6234,318.2592,0,U,64608,999,575,.31241306E-1,.1115202E-1,0
STARLINK-34513,2025-137R,2026-06-22T12:06:15.223104,15.30198518,.00011172,53.1584,208.3000,79.8513,280.2614,0,U,64609,999,5687,.25669365E-3,.7251E-4,0
STARLINK-34569,2025-137S,2026-06-22T08:51:15.906240,15.34399168,.00010764,53.1589,208.8785,89.9431,270.1695,0,U,64610,999,5676,.40977382E-3,.13493E-3,0
STARLINK-34494,2025-137T,2026-06-22T11:43:42.392640,15.34404621,.00006534,53.1600,208.2040,50.6438,309.4623,0,U,64611,999,5678,.49107318E-3,.16254E-3,0
STARLINK-34521,2025-137U,2026-06-22T07:22:34.535424,15.30199723,.00009724,53.1582,209.2010,77.9754,282.1355,0,U,64612,999,5675,.43600724E-3,.12576E-3,0
STARLINK-34500,2025-137V,2026-06-22T08:39:08.937504,15.34400718,.00016936,53.1598,208.8225,93.7165,266.4031,0,U,64613,999,5686,.45565279E-3,.1505E-3,0
STARLINK-34440,2025-137W,2026-06-22T17:03:11.602080,15.33566282,.00014416,53.1598,207.4504,135.2531,224.8587,0,U,64614,999,5681,.41840588E-3,.1342E-3,0
STARLINK-34469,2025-137X,2026-06-22T08:36:52.434144,15.30199205,.00014234,53.1603,208.8116,93.4177,266.6987,0,U,64615,999,5676,.34608293E-3,.9904E-4,0
STARLINK-34413,2025-137Y,2026-06-22T08:42:10.668672,15.34397249,.00011558,53.1598,208.8368,77.4641,282.6491,0,U,64616,999,5686,.46150515E-3,.15247E-3,0
STARLINK-34417,2025-137Z,2026-06-22T10:27:14.665824,15.34398189,.00009528,53.1576,194.8685,84.6421,275.4690,0,U,64617,999,5706,.41609852E-3,.13707E-3,0
STARLINK-34415,2025-137AA,2026-06-22T20:00:01.999872,15.34392400,.00013249,53.1608,206.7259,59.4358,335.8398,0,U,64618,999,580,.39122944E-4,.945E-5,0
STARLINK-34416,2025-137AB,2026-06-22T09:01:11.079552,15.30199401,.00009132,53.1575,208.9157,76.5101,283.6001,0,U,64619,999,5676,.4147791E-3,.11945E-3,0
STARLINK-34414,2025-137AC,2026-06-22T09:09:26.605152,15.34397296,.0001062,53.1585,208.9497,75.1935,284.9185,0,U,64620,999,5676,.43639122E-3,.14395E-3,0
HAWK-12C,2025-138A,2026-06-22T18:38:03.178752,15.18235677,.00156578,97.4344,176.1259,120.4145,239.8639,0,U,64621,999,5471,.14974493E-3,.3006E-4,0
HAWK-12B,2025-138B,2026-06-22T18:38:18.368736,15.18235496,.00147085,97.4467,176.7835,115.9606,244.3145,0,U,64622,999,5471,.15200952E-3,.3051E-4,0
HAWK-12A,2025-138C,2026-06-22T18:37:45.828768,15.18236586,.00156332,97.4404,176.4532,115.6944,244.5907,0,U,64623,999,5471,.15191323E-3,.3051E-4,0
KESTREL-0A,2025-138D,2026-06-22T16:30:04.205088,15.23274595,.00151606,97.4409,177.7904,104.7814,255.5104,0,U,64624,999,5478,.31000098E-3,.7302E-4,0
STARLINK-34464,2025-139A,2026-06-22T12:03:30.123936,15.34404471,.00016117,53.1606,358.6275,85.4426,274.6761,0,U,64664,999,5635,.36059376E-3,.11828E-3,0
STARLINK-34555,2025-139B,2026-06-22T12:00:29.624832,15.34410094,.0001214,53.1600,358.6122,90.2839,269.8303,0,U,64665,999,5625,.54264735E-3,.18008E-3,0
STARLINK-34390,2025-139C,2026-06-21T19:34:01.639200,15.34417191,.00011,53.1594,1.4471,88.8971,271.2157,0,U,64666,999,5631,.60077377E-3,.19987E-3,0
STARLINK-34382,2025-139D,2026-06-21T20:53:30.634080,15.34398799,.00004817,53.1607,3.2062,89.9006,270.2052,0,U,64667,999,5623,.60156537E-3,.20002E-3,0
